[{"OBJECT_NAME":"STARLINK-33650","OBJECT_ID":"2025-057Q","EPOCH":"2026-03-09T06:08:15.734688","MEAN_MOTION":15.27596519,"ECCENTRICITY":0.00013886,"INCLINATION":42.9992,"RA_OF_ASC_NODE":33.0786,"ARG_OF_PERICENTER":269.6659,"MEAN_ANOMALY":90.4034,"EPHEMERIS_TYPE":0,"CLASSIFICATION_TYPE":"U","NORAD_CAT_ID":63321,"ELEMENT_SET_NO":999,"REV_AT_EPOCH":5567,"BSTAR":0.001041899,"MEAN_MOTION_DOT":0.00028534,"MEAN_MOTION_DDOT":0},{"OBJECT_NAME":"CZ-6A DEB","OBJECT_ID":"2024-140YZ","EPOCH":"2026-03-09T14:14:13.172928","MEAN_MOTION":14.91044947,"ECCENTRICITY":0.0161166,"INCLINATION":89.0861,"RA_OF_ASC_NODE":285.7767,"ARG_OF_PERICENTER":146.5264,"MEAN_ANOMALY":214.6281,"EPHEMERIS_TYPE":0,"CLASSIFICATION_TYPE":"U","NORAD_CAT_ID":61432,"ELEMENT_SET_NO":999,"REV_AT_EPOCH":8368,"BSTAR":0.0010034,"MEAN_MOTION_DOT":0.0001278,"MEAN_MOTION_DDOT":0}]
